[{"OBJECT_NAME":"DMSP 5D-3 F16 (USA 172)","OBJECT_ID":"2003-048A","EPOCH":"2026-03-06T07:16:40.165824","MEAN_MOTION":14.14460598,"ECCENTRICITY":0.00081724,"INCLINATION":98.9996,"RA_OF_ASC_NODE":88.4048,"ARG_OF_PERICENTER":81.1566,"MEAN_ANOMALY":289.6282,"EPHEMERIS_TYPE":0,"CLASSIFICATION_TYPE":"U","NORAD_CAT_ID":28054,"ELEMENT_SET_NO":999,"REV_AT_EPOCH":15494,"BSTAR":0.00012228337,"MEAN_MOTION_DOT":1.89e-6,"MEAN_MOTION_DDOT":0},{"OBJECT_NAME":"METEOSAT-9 (MSG-2)","OBJECT_ID":"2005-049B","EPOCH":"2026-03-06T01:36:38.729088","MEAN_MOTION":1.00278249,"ECCENTRICITY":0.00016369,"INCLINATION":9.1287,"RA_OF_ASC_NODE":55.1656,"ARG_OF_PERICENTER":223.7323,"MEAN_ANOMALY":314.8216,"EPHEMERIS_TYPE":0,"CLASSIFICATION_TYPE":"U","NORAD_CAT_ID":28912,"ELEMENT_SET_NO":999,"REV_AT_EPOCH":596,"BSTAR":0,"MEAN_MOTION_DOT":1.21e-6,"MEAN_MOTION_DDOT":0},{"OBJECT_NAME":"DMSP 5D-3 F17 (USA 191)","OBJECT_ID":"2006-050A","EPOCH":"2026-03-06T06:48:40.059072","MEAN_MOTION":14.1496215,"ECCENTRICITY":0.00099663,"INCLINATION":98.7414,"RA_OF_ASC_NODE":73.9482,"ARG_OF_PERICENTER":356.7443,"MEAN_ANOMALY":3.3664,"EPHEMERIS_TYPE":0,"CLASSIFICATION_TYPE":"U","NORAD_CAT_ID":29522,"ELEMENT_SET_NO":999,"REV_AT_EPOCH":99786,"BSTAR":0.00014662713,"MEAN_MOTION_DOT":2.4e-6,"MEAN_MOTION_DDOT":0},{"OBJECT_NAME":"FENGYUN 3A","OBJECT_ID":"2008-026A","EPOCH":"2026-03-06T06:45:19.518624","MEAN_MOTION":14.19545134,"ECCENTRICITY":0.00097609,"INCLINATION":98.6794,"RA_OF_ASC_NODE":8.0922,"ARG_OF_PERICENTER":67.0681,"MEAN_ANOMALY":293.1524,"EPHEMERIS_TYPE":0,"CLASSIFICATION_TYPE":"U","NORAD_CAT_ID":32958,"ELEMENT_SET_NO":999,"REV_AT_EPOCH":92080,"BSTAR":9.5356938e-5,"MEAN_MOTION_DOT":1.58e-6,"MEAN_MOTION_DDOT":0},{"OBJECT_NAME":"GOES 14","OBJECT_ID":"2009-033A","EPOCH":"2026-03-06T03:58:38.609760","MEAN_MOTION":1.00100143,"ECCENTRICITY":0.00017804,"INCLINATION":1.4238,"RA_OF_ASC_NODE":84.3957,"ARG_OF_PERICENTER":255.5978,"MEAN_ANOMALY":84.324,"EPHEMERIS_TYPE":0,"CLASSIFICATION_TYPE":"U","NORAD_CAT_ID":35491,"ELEMENT_SET_NO":999,"REV_AT_EPOCH":555,"BSTAR":0,"MEAN_MOTION_DOT":1.2e-6,"MEAN_MOTION_DDOT":0},{"OBJECT_NAME":"DMSP 5D-3 F18 (USA 210)","OBJECT_ID":"2009-057A","EPOCH":"2026-03-06T05:55:52.544352","MEAN_MOTION":14.14833413,"ECCENTRICITY":0.00109339,"INCLINATION":98.896,"RA_OF_ASC_NODE":46.2882,"ARG_OF_PERICENTER":178.0597,"MEAN_ANOMALY":182.062,"EPHEMERIS_TYPE":0,"CLASSIFICATION_TYPE":"U","NORAD_CAT_ID":35951,"ELEMENT_SET_NO":999,"REV_AT_EPOCH":84503,"BSTAR":0.00020794929,"MEAN_MOTION_DOT":3.57e-6,"MEAN_MOTION_DDOT":0},{"OBJECT_NAME":"EWS-G2 (GOES 15)","OBJECT_ID":"2010-008A","EPOCH":"2026-03-06T03:59:25.003968","MEAN_MOTION":1.00269713,"ECCENTRICITY":0.00020058,"INCLINATION":1.0131,"RA_OF_ASC_NODE":85.1126,"ARG_OF_PERICENTER":18.4418,"MEAN_ANOMALY":183.6554,"EPHEMERIS_TYPE":0,"CLASSIFICATION_TYPE":"U","NORAD_CAT_ID":36411,"ELEMENT_SET_NO":999,"REV_AT_EPOCH":5860,"BSTAR":0,"MEAN_MOTION_DOT":1.6e-7,"MEAN_MOTION_DDOT":0},{"OBJECT_NAME":"COMS 1","OBJECT_ID":"2010-032A","EPOCH":"2026-03-05T22:58:38.508096","MEAN_MOTION":1.00271922,"ECCENTRICITY":0.00012271,"INCLINATION":4.5396,"RA_OF_ASC_NODE":76.849,"ARG_OF_PERICENTER":290.3304,"MEAN_ANOMALY":269.3388,"EPHEMERIS_TYPE":0,"CLASSIFICATION_TYPE":"U","NORAD_CAT_ID":36744,"ELEMENT_SET_NO":999,"REV_AT_EPOCH":5005,"BSTAR":0,"MEAN_MOTION_DOT":-3.49e-6,"MEAN_MOTION_DDOT":0},{"OBJECT_NAME":"FENGYUN 3B","OBJECT_ID":"2010-059A","EPOCH":"2026-03-06T06:43:04.463328","MEAN_MOTION":14.14817254,"ECCENTRICITY":0.00230299,"INCLINATION":98.9769,"RA_OF_ASC_NODE":110.7945,"ARG_OF_PERICENTER":117.4613,"MEAN_ANOMALY":15.2891,"EPHEMERIS_TYPE":0,"CLASSIFICATION_TYPE":"U","NORAD_CAT_ID":37214,"ELEMENT_SET_NO":999,"REV_AT_EPOCH":79287,"BSTAR":0.00022342676,"MEAN_MOTION_DOT":3.87e-6,"MEAN_MOTION_DDOT":0},{"OBJECT_NAME":"SUOMI NPP","OBJECT_ID":"2011-061A","EPOCH":"2026-03-06T06:56:51.099648","MEAN_MOTION":14.19542441,"ECCENTRICITY":4.025e-5,"INCLINATION":98.7867,"RA_OF_ASC_NODE":6.9192,"ARG_OF_PERICENTER":263.2278,"MEAN_ANOMALY":96.8853,"EPHEMERIS_TYPE":0,"CLASSIFICATION_TYPE":"U","NORAD_CAT_ID":37849,"ELEMENT_SET_NO":999,"REV_AT_EPOCH":74384,"BSTAR":8.9147905e-5,"MEAN_MOTION_DOT":1.44e-6,"MEAN_MOTION_DDOT":0},{"OBJECT_NAME":"METEOSAT-10 (MSG-3)","OBJECT_ID":"2012-035B","EPOCH":"2026-03-06T05:24:01.890432","MEAN_MOTION":1.00267763,"ECCENTRICITY":0.00024941,"INCLINATION":4.428,"RA_OF_ASC_NODE":61.4557,"ARG_OF_PERICENTER":282.3505,"MEAN_ANOMALY":261.3987,"EPHEMERIS_TYPE":0,"CLASSIFICATION_TYPE":"U","NORAD_CAT_ID":38552,"ELEMENT_SET_NO":999,"REV_AT_EPOCH":4982,"BSTAR":0,"MEAN_MOTION_DOT":-1.0e-7,"MEAN_MOTION_DDOT":0},{"OBJECT_NAME":"METOP-B","OBJECT_ID":"2012-049A","EPOCH":"2026-03-06T06:39:30.474720","MEAN_MOTION":14.21443484,"ECCENTRICITY":0.00011891,"INCLINATION":98.6649,"RA_OF_ASC_NODE":118.7664,"ARG_OF_PERICENTER":284.6654,"MEAN_ANOMALY":75.4392,"EPHEMERIS_TYPE":0,"CLASSIFICATION_TYPE":"U","NORAD_CAT_ID":38771,"ELEMENT_SET_NO":999,"REV_AT_EPOCH":69864,"BSTAR":9.8863261e-5,"MEAN_MOTION_DOT":1.73e-6,"MEAN_MOTION_DDOT":0},{"OBJECT_NAME":"INSAT-3D","OBJECT_ID":"2013-038B","EPOCH":"2026-03-06T06:00:35.883648","MEAN_MOTION":1.0027271,"ECCENTRICITY":0.00017018,"INCLINATION":1.6601,"RA_OF_ASC_NODE":83.8888,"ARG_OF_PERICENTER":246.5341,"MEAN_ANOMALY":53.1897,"EPHEMERIS_TYPE":0,"CLASSIFICATION_TYPE":"U","NORAD_CAT_ID":39216,"ELEMENT_SET_NO":999,"REV_AT_EPOCH":4604,"BSTAR":0,"MEAN_MOTION_DOT":-3.44e-6,"MEAN_MOTION_DDOT":0},{"OBJECT_NAME":"FENGYUN 3C","OBJECT_ID":"2013-052A","EPOCH":"2026-03-06T06:48:09.588384","MEAN_MOTION":14.15727658,"ECCENTRICITY":0.00140024,"INCLINATION":98.4887,"RA_OF_ASC_NODE":43.9382,"ARG_OF_PERICENTER":323.5383,"MEAN_ANOMALY":36.4838,"EPHEMERIS_TYPE":0,"CLASSIFICATION_TYPE":"U","NORAD_CAT_ID":39260,"ELEMENT_SET_NO":999,"REV_AT_EPOCH":64400,"BSTAR":0.00010564174,"MEAN_MOTION_DOT":1.66e-6,"MEAN_MOTION_DDOT":0},{"OBJECT_NAME":"METEOR-M 2","OBJECT_ID":"2014-037A","EPOCH":"2026-03-06T05:37:12.936864","MEAN_MOTION":14.21427126,"ECCENTRICITY":0.00055938,"INCLINATION":98.5021,"RA_OF_ASC_NODE":44.673,"ARG_OF_PERICENTER":348.3588,"MEAN_ANOMALY":11.746,"EPHEMERIS_TYPE":0,"CLASSIFICATION_TYPE":"U","NORAD_CAT_ID":40069,"ELEMENT_SET_NO":999,"REV_AT_EPOCH":60469,"BSTAR":0.00012733062,"MEAN_MOTION_DOT":2.36e-6,"MEAN_MOTION_DDOT":0},{"OBJECT_NAME":"HIMAWARI-8","OBJECT_ID":"2014-060A","EPOCH":"2026-03-05T23:13:24.936672","MEAN_MOTION":1.00271621,"ECCENTRICITY":7.206e-5,"INCLINATION":0.0252,"RA_OF_ASC_NODE":238.2083,"ARG_OF_PERICENTER":99.4681,"MEAN_ANOMALY":315.0191,"EPHEMERIS_TYPE":0,"CLASSIFICATION_TYPE":"U","NORAD_CAT_ID":40267,"ELEMENT_SET_NO":999,"REV_AT_EPOCH":4172,"BSTAR":0,"MEAN_MOTION_DOT":-2.82e-6,"MEAN_MOTION_DDOT":0},{"OBJECT_NAME":"FENGYUN 2G","OBJECT_ID":"2014-090A","EPOCH":"2026-03-06T00:44:21.209856","MEAN_MOTION":1.00274017,"ECCENTRICITY":0.00017513,"INCLINATION":5.3782,"RA_OF_ASC_NODE":74.0681,"ARG_OF_PERICENTER":151.2424,"MEAN_ANOMALY":49.2255,"EPHEMERIS_TYPE":0,"CLASSIFICATION_TYPE":"U","NORAD_CAT_ID":40367,"ELEMENT_SET_NO":999,"REV_AT_EPOCH":4096,"BSTAR":0,"MEAN_MOTION_DOT":-3.07e-6,"MEAN_MOTION_DDOT":0}]
